OBJECT_NAME,OBJECT_ID,EPOCH,MEAN_MOTION,ECCENTRICITY,INCLINATION,RA_OF_ASC_NODE,ARG_OF_PERICENTER,MEAN_ANOMALY,EPHEMERIS_TYPE,CLASSIFICATION_TYPE,NORAD_CAT_ID,ELEMENT_SET_NO,REV_AT_EPOCH,BSTAR,MEAN_MOTION_DOT,MEAN_MOTION_DDOT
ONEWEB-0196,2021-031J,2026-06-16T20:04:30.283104,13.14503276,.0002004,87.8962,289.7766,104.9059,255.2293,0,U,48218,999,24818,-.44308E-3,-.151E-5,0
ONEWEB-0183,2021-031K,2026-06-16T17:38:21.535872,13.14502990,.0002077,87.8963,289.7949,96.7133,263.4233,0,U,48219,999,24826,-.27581E-3,-.89E-6,0
ONEWEB-0185,2021-031L,2026-06-16T20:05:38.134752,13.14502627,.0002351,87.8970,289.7680,101.3295,258.8099,0,U,48220,999,24820,-.48122E-3,-.166E-5,0
ONEWEB-0187,2021-031M,2026-06-16T17:47:15.459360,13.14519532,.0002165,87.8959,289.8029,104.0042,256.1329,0,U,48221,999,24820,.3916E-2,.1465E-4,0
ONEWEB-0192,2021-031N,2026-06-16T20:43:18.952320,13.14500918,.000189,87.8963,289.7687,104.0594,256.0746,0,U,48222,999,24813,.43725E-3,.175E-5,0
ONEWEB-0219,2021-031P,2026-06-16T20:13:36.606720,13.14502726,.0002161,87.8963,289.7649,103.8221,256.3149,0,U,48223,999,24833,-.84865E-3,-.302E-5,0
ONEWEB-0202,2021-031Q,2026-06-16T17:56:37.869792,13.14502618,.0001868,87.8967,289.7962,121.5599,238.5713,0,U,48224,999,24830,-.60847E-3,-.213E-5,0
ONEWEB-0204,2021-031R,2026-06-16T20:35:20.438016,13.14502473,.0002163,87.8966,289.7687,94.9121,265.2255,0,U,48225,999,24821,.34971E-3,.142E-5,0
ONEWEB-0205,2021-031S,2026-06-16T19:59:54.604032,13.14502765,.0002143,87.8972,289.7672,106.3554,253.7811,0,U,48226,999,24822,-.11935E-2,-.43E-5,0
ONEWEB-0206,2021-031T,2026-06-16T17:31:30.186336,13.14503647,.0001781,87.8969,289.7890,96.4770,263.6562,0,U,48227,999,24816,-.39988E-4,-.2E-7,0
ONEWEB-0182,2021-031U,2026-06-16T13:45:26.375616,13.14502466,.0002059,87.8965,289.8279,95.5230,264.6134,0,U,48228,999,24835,.4249E-3,.17E-5,0
ONEWEB-0186,2021-031V,2026-06-16T17:40:38.337312,13.14502315,.0002019,87.8975,289.7859,102.4142,257.7213,0,U,48229,999,24832,-.24446E-3,-.78E-6,0
ONEWEB-0181,2021-031W,2026-06-16T17:08:40.678944,13.14502546,.0001972,87.8955,289.8199,106.4095,253.7252,0,U,48230,999,24817,.28855E-3,.12E-5,0
ONEWEB-0188,2021-031X,2026-06-16T18:03:28.020096,13.14504184,.0001985,87.8956,289.8114,101.1357,258.9996,0,U,48231,999,24808,-.63113E-3,-.221E-5,0
ONEWEB-0220,2021-031Y,2026-06-16T17:10:56.580096,13.14502133,.0002221,87.8973,289.7918,104.2299,255.9078,0,U,48232,999,24834,.45832E-3,.183E-5,0
ONEWEB-0165,2021-031Z,2026-06-16T17:52:03.212832,13.14501054,.000198,87.8965,289.7987,112.5747,247.5593,0,U,48233,999,24830,-.68254E-3,-.24E-5,0
ONEWEB-0199,2021-031AA,2026-06-16T13:50:00.191904,13.14503284,.0001814,87.8972,289.8183,95.6166,264.5170,0,U,48234,999,24818,.87925E-4,.45E-6,0
ONEWEB-0203,2021-031AB,2026-06-16T17:15:31.725216,13.14503210,.0001745,87.8971,289.7932,102.7954,257.3371,0,U,48235,999,24821,.72173E-3,.28E-5,0
ONEWEB-0197,2021-031AC,2026-06-16T20:18:00.041184,13.14504111,.000219,87.8959,289.7543,97.1615,262.9763,0,U,48236,999,24814,-.86803E-4,-.19E-6,0
ONEWEB-0194,2021-031AD,2026-06-16T17:58:54.639264,13.14501784,.000171,87.8966,289.7955,98.3122,261.8201,0,U,48237,999,24830,-.85105E-3,-.303E-5,0
ONEWEB-0193,2021-031AE,2026-06-16T20:11:21.016608,13.14502803,.0001537,87.8964,289.7677,94.3988,265.7318,0,U,48238,999,24826,-.33655E-3,-.112E-5,0
ONEWEB-0191,2021-031AF,2026-06-16T20:27:20.731392,13.14502746,.0002062,87.8972,289.7640,96.2889,263.8476,0,U,48239,999,24812,.13697E-3,.64E-6,0
ONEWEB-0195,2021-031AG,2026-06-16T18:04:36.453216,13.14501616,.000206,87.8970,289.7843,111.7739,248.3610,0,U,48240,999,24809,-.66913E-3,-.235E-5,0
ONEWEB-0201,2021-031AH,2026-06-16T17:47:40.113600,13.14504197,.0002246,87.8964,289.8028,98.0806,262.0579,0,U,48241,999,24832,-.52845E-3,-.183E-5,0
ONEWEB-0207,2021-031AJ,2026-06-16T17:18:56.968416,13.14502398,.0002187,87.8971,289.7916,98.8176,261.3201,0,U,48242,999,24823,.34393E-3,.14E-5,0
ONEWEB-0208,2021-031AK,2026-06-16T20:31:54.482880,13.14503787,.0001937,87.8966,289.7713,111.5085,248.6251,0,U,48243,999,24826,.50847E-3,.201E-5,0
ONEWEB-0200,2021-031AL,2026-06-16T17:49:46.121952,13.14502272,.0002007,87.8974,289.7803,103.1939,256.9415,0,U,48244,999,24817,-.5713E-3,-.199E-5,0
ONEWEB-0217,2021-031AM,2026-06-16T20:02:12.291072,13.14503266,.0001917,87.8958,289.7653,121.6522,238.4794,0,U,48245,999,24813,-.41917E-2,-.1541E-4,0
ONEWEB-0211,2021-045A,2026-06-16T17:38:08.538720,13.16196827,.0001887,87.9006,259.1715,121.3088,238.8228,0,U,48767,999,24438,-.93474E-4,-.23E-6,0
ONEWEB-0223,2021-045B,2026-06-16T17:41:10.893696,13.15549017,.0001729,87.9009,259.2799,111.4533,248.6781,0,U,48768,999,24434,-.24656E-3,-.8E-6,0
