ONEWEB-0196             
1 48218U 21031J   26167.83646161 -.00000151  00000+0 -44308-3 0  9997
2 48218  87.8962 289.7766 0002004 104.9059 255.2293 13.14503276248187
ONEWEB-0183             
1 48219U 21031K   26167.73497148 -.00000089  00000+0 -27581-3 0  9990
2 48219  87.8963 289.7949 0002077  96.7133 263.4233 13.14502990248269
ONEWEB-0185             
1 48220U 21031L   26167.83724693 -.00000166  00000+0 -48122-3 0  9991
2 48220  87.8970 289.7680 0002351 101.3295 258.8099 13.14502627248207
ONEWEB-0187             
1 48221U 21031M   26167.74115115  .00001465  00000+0  39160-2 0  9997
2 48221  87.8959 289.8029 0002165 104.0042 256.1329 13.14519532248206
ONEWEB-0192             
1 48222U 21031N   26167.86341380  .00000175  00000+0  43725-3 0  9996
2 48222  87.8963 289.7687 0001890 104.0594 256.0746 13.14500918248139
ONEWEB-0219             
1 48223U 21031P   26167.84278480 -.00000302  00000+0 -84865-3 0  9999
2 48223  87.8963 289.7649 0002161 103.8221 256.3149 13.14502726248335
ONEWEB-0202             
1 48224U 21031Q   26167.74766053 -.00000213  00000+0 -60847-3 0  9992
2 48224  87.8967 289.7962 0001868 121.5599 238.5713 13.14502618248302
ONEWEB-0204             
1 48225U 21031R   26167.85787544  .00000142  00000+0  34971-3 0  9991
2 48225  87.8966 289.7687 0002163  94.9121 265.2255 13.14502473248216
ONEWEB-0205             
1 48226U 21031S   26167.83327088 -.00000430  00000+0 -11935-2 0  9999
2 48226  87.8972 289.7672 0002143 106.3554 253.7811 13.14502765248229
ONEWEB-0206             
1 48227U 21031T   26167.73021049 -.00000002  00000+0 -39988-4 0  9992
2 48227  87.8969 289.7890 0001781  96.4770 263.6562 13.14503647248160
ONEWEB-0182             
1 48228U 21031U   26167.57322194  .00000170  00000+0  42490-3 0  9995
2 48228  87.8965 289.8279 0002059  95.5230 264.6134 13.14502466248354
ONEWEB-0186             
1 48229U 21031V   26167.73655483 -.00000078  00000+0 -24446-3 0  9994
2 48229  87.8975 289.7859 0002019 102.4142 257.7213 13.14502315248326
ONEWEB-0181             
1 48230U 21031W   26167.71435971  .00000120  00000+0  28855-3 0  9996
2 48230  87.8955 289.8199 0001972 106.4095 253.7252 13.14502546248170
ONEWEB-0188             
1 48231U 21031X   26167.75240764 -.00000221  00000+0 -63113-3 0  9995
2 48231  87.8956 289.8114 0001985 101.1357 258.9996 13.14504184248088
ONEWEB-0220             
1 48232U 21031Y   26167.71593264  .00000183  00000+0  45832-3 0  9991
2 48232  87.8973 289.7918 0002221 104.2299 255.9078 13.14502133248341
ONEWEB-0165             
1 48233U 21031Z   26167.74448163 -.00000240  00000+0 -68254-3 0  9991
2 48233  87.8965 289.7987 0001980 112.5747 247.5593 13.14501054248306
ONEWEB-0199             
1 48234U 21031AA  26167.57639111  .00000045  00000+0  87925-4 0  9996
2 48234  87.8972 289.8183 0001814  95.6166 264.5170 13.14503284248189
ONEWEB-0203             
1 48235U 21031AB  26167.71911719  .00000280  00000+0  72173-3 0  9999
2 48235  87.8971 289.7932 0001745 102.7954 257.3371 13.14503210248214
ONEWEB-0197             
1 48236U 21031AC  26167.84583381 -.00000019  00000+0 -86803-4 0  9992
2 48236  87.8959 289.7543 0002190  97.1615 262.9763 13.14504111248145
ONEWEB-0194             
1 48237U 21031AD  26167.74924351 -.00000303  00000+0 -85105-3 0  9997
2 48237  87.8966 289.7955 0001710  98.3122 261.8201 13.14501784248300
ONEWEB-0193             
1 48238U 21031AE  26167.84121547 -.00000112  00000+0 -33655-3 0  9996
2 48238  87.8964 289.7677 0001537  94.3988 265.7318 13.14502803248263
ONEWEB-0191             
1 48239U 21031AF  26167.85232328  .00000064  00000+0  13697-3 0  9996
2 48239  87.8972 289.7640 0002062  96.2889 263.8476 13.14502746248123
ONEWEB-0195             
1 48240U 21031AG  26167.75319969 -.00000235  00000+0 -66913-3 0  9995
2 48240  87.8970 289.7843 0002060 111.7739 248.3610 13.14501616248092
ONEWEB-0201             
1 48241U 21031AH  26167.74143650 -.00000183  00000+0 -52845-3 0  9998
2 48241  87.8964 289.8028 0002246  98.0806 262.0579 13.14504197248320
ONEWEB-0207             
1 48242U 21031AJ  26167.72149269  .00000140  00000+0  34393-3 0  9998
2 48242  87.8971 289.7916 0002187  98.8176 261.3201 13.14502398248231
ONEWEB-0208             
1 48243U 21031AK  26167.85549170  .00000201  00000+0  50847-3 0  9998
2 48243  87.8966 289.7713 0001937 111.5085 248.6251 13.14503787248264
ONEWEB-0200             
1 48244U 21031AL  26167.74289493 -.00000199  00000+0 -57130-3 0  9996
2 48244  87.8974 289.7803 0002007 103.1939 256.9415 13.14502272248170
ONEWEB-0217             
1 48245U 21031AM  26167.83486448 -.00001541  00000+0 -41917-2 0  9993
2 48245  87.8958 289.7653 0001917 121.6522 238.4794 13.14503266248133
ONEWEB-0211             
1 48767U 21045A   26167.73482105 -.00000023  00000+0 -93474-4 0  9993
2 48767  87.9006 259.1715 0001887 121.3088 238.8228 13.16196827244389
ONEWEB-0223             
1 48768U 21045B   26167.73693164 -.00000080  00000+0 -24656-3 0  9991
2 48768  87.9009 259.2799 0001729 111.4533 248.6781 13.15549017244347
